{
  "type": "FeatureCollection",
  "features": [
    {
      "type": "Feature",
      "properties": {
        "norad_id": 66549,
        "name": "SHIJIAN-28 (SJ-28)",
        "group": "last-30-days",
        "lat": 4.7322308956476,
        "lon": 23.39706711806969,
        "alt_km": 35783.58035702754,
        "timestamp": "2025-12-26T11:25:43.983480+00:00",
        "meta_object_name": "SHIJIAN-28 (SJ-28)",
        "meta_object_id": "2025-277A",
        "meta_epoch": "2025-12-25T13:29:07.948320",
        "meta_mean_motion": 1.0026485,
        "meta_eccentricity": 9.97e-05,
        "meta_inclination": 4.9871,
        "meta_ra_of_asc_node": 274.7549,
        "meta_arg_of_pericenter": 127.1328,
        "meta_mean_anomaly": 11.4336,
        "meta_ephemeris_type": 0,
        "meta_classification_type": "U",
        "meta_norad_cat_id": 66549,
        "meta_element_set_no": 999,
        "meta_rev_at_epoch": 41,
        "meta_bstar": 0,
        "meta_mean_motion_dot": -3.37e-06,
        "meta_mean_motion_ddot": 0,
        "tle_line1": "1 66549U 25277A   25359.56189755 -.00000337  00000+0  00000+0 0  9995",
        "tle_line2": "2 66549   4.9871 274.7549 0000997 127.1328  11.4336  1.00264850   417"
      },
      "geometry": {
        "type": "Point",
        "coordinates": [
          23.39706711806969,
          4.7322308956476
        ]
      }
    },
    {
      "type": "Feature",
      "properties": {
        "norad_id": 66550,
        "name": "CZ-7A R/B",
        "group": "last-30-days",
        "lat": -14.332407843061917,
        "lon": 169.53286889142424,
        "alt_km": 1844.12192795174,
        "timestamp": "2025-12-26T11:25:43.983546+00:00",
        "meta_object_name": "CZ-7A R/B",
        "meta_object_id": "2025-277B",
        "meta_epoch": "2025-12-23T05:53:12.433056",
        "meta_mean_motion": 3.27661077,
        "meta_eccentricity": 0.66094342,
        "meta_inclination": 14.3426,
        "meta_ra_of_asc_node": 263.9223,
        "meta_arg_of_pericenter": 200.4471,
        "meta_mean_anomaly": 110.5172,
        "meta_ephemeris_type": 0,
        "meta_classification_type": "U",
        "meta_norad_cat_id": 66550,
        "meta_element_set_no": 999,
        "meta_rev_at_epoch": 65,
        "meta_bstar": 0.0068493476,
        "meta_mean_motion_dot": 0.10979967,
        "meta_mean_motion_ddot": 1.8894821e-05,
        "tle_line1": "1 66550U 25277B   25357.24528279  .10979967  18895-4  68493-2 0  9991",
        "tle_line2": "2 66550  14.3426 263.9223 6609434 200.4471 110.5172  3.27661077   658"
      },
      "geometry": {
        "type": "Point",
        "coordinates": [
          169.53286889142424,
          -14.332407843061917
        ]
      }
    },
    {
      "type": "Feature",
      "properties": {
        "norad_id": 66554,
        "name": "GLOBAL-33",
        "group": "last-30-days",
        "lat": -36.74660346635871,
        "lon": -78.33052850765218,
        "alt_km": 474.566573905262,
        "timestamp": "2025-12-26T11:25:43.983571+00:00",
        "meta_object_name": "GLOBAL-33",
        "meta_object_id": "2025-267A",
        "meta_epoch": "2025-12-25T23:11:09.479616",
        "meta_mean_motion": 15.31778281,
        "meta_eccentricity": 0.00048835,
        "meta_inclination": 42.0212,
        "meta_ra_of_asc_node": 340.6327,
        "meta_arg_of_pericenter": 183.6559,
        "meta_mean_anomaly": 176.4243,
        "meta_ephemeris_type": 0,
        "meta_classification_type": "U",
        "meta_norad_cat_id": 66554,
        "meta_element_set_no": 999,
        "meta_rev_at_epoch": 543,
        "meta_bstar": 0.00045946365,
        "meta_mean_motion_dot": 0.00014182,
        "meta_mean_motion_ddot": 0,
        "tle_line1": "1 66554U 25267A   25359.96608194  .00014182  00000+0  45946-3 0  9991",
        "tle_line2": "2 66554  42.0212 340.6327 0004883 183.6559 176.4243 15.31778281  5436"
      },
      "geometry": {
        "type": "Point",
        "coordinates": [
          -78.33052850765218,
          -36.74660346635871
        ]
      }
    },
    {
      "type": "Feature",
      "properties": {
        "norad_id": 66557,
        "name": "STARLINK-35699",
        "group": "last-30-days",
        "lat": 30.921119411528835,
        "lon": -178.98948620232892,
        "alt_km": 458.2493037070217,
        "timestamp": "2025-12-26T11:25:43.983582+00:00",
        "meta_object_name": "STARLINK-35699",
        "meta_object_id": "2025-268A",
        "meta_epoch": "2025-12-26T04:00:01.998720",
        "meta_mean_motion": 15.35857443,
        "meta_eccentricity": 8.6e-05,
        "meta_inclination": 43.0008,
        "meta_ra_of_asc_node": 42.7784,
        "meta_arg_of_pericenter": 287.5226,
        "meta_mean_anomaly": 290.9255,
        "meta_ephemeris_type": 0,
        "meta_classification_type": "U",
        "meta_norad_cat_id": 66557,
        "meta_element_set_no": 999,
        "meta_rev_at_epoch": 605,
        "meta_bstar": -0.062897,
        "meta_mean_motion_dot": -0.01994801,
        "meta_mean_motion_ddot": 0,
        "tle_line1": "1 66557U 25268A   25360.16668980 -.01994801  00000+0 -62897-1 0  9998",
        "tle_line2": "2 66557  43.0008  42.7784 0000860 287.5226 290.9255 15.35857443  6052"
      },
      "geometry": {
        "type": "Point",
        "coordinates": [
          -178.98948620232892,
          30.921119411528835
        ]
      }
    },
    {
      "type": "Feature",
      "properties": {
        "norad_id": 66558,
        "name": "STARLINK-35695",
        "group": "last-30-days",
        "lat": 21.52990715635946,
        "lon": -164.07555284182035,
        "alt_km": 457.15326532465133,
        "timestamp": "2025-12-26T11:25:43.983593+00:00",
        "meta_object_name": "STARLINK-35695",
        "meta_object_id": "2025-268B",
        "meta_epoch": "2025-12-26T04:00:01.998720",
        "meta_mean_motion": 15.36674647,
        "meta_eccentricity": 0.0001045,
        "meta_inclination": 43.0006,
        "meta_ra_of_asc_node": 42.7423,
        "meta_arg_of_pericenter": 274.1835,
        "meta_mean_anomaly": 319.6629,
        "meta_ephemeris_type": 0,
        "meta_classification_type": "U",
        "meta_norad_cat_id": 66558,
        "meta_element_set_no": 999,
        "meta_rev_at_epoch": 605,
        "meta_bstar": -0.059419,
        "meta_mean_motion_dot": -0.01941745,
        "meta_mean_motion_ddot": 0,
        "tle_line1": "1 66558U 25268B   25360.16668980 -.01941745  00000+0 -59419-1 0  9994",
        "tle_line2": "2 66558  43.0006  42.7423 0001045 274.1835 319.6629 15.36674647  6053"
      },
      "geometry": {
        "type": "Point",
        "coordinates": [
          -164.07555284182035,
          21.52990715635946
        ]
      }
    },
    {
      "type": "Feature",
      "properties": {
        "norad_id": 66559,
        "name": "STARLINK-35419",
        "group": "last-30-days",
        "lat": -29.066039874019044,
        "lon": -102.60265779868003,
        "alt_km": 446.77610213922253,
        "timestamp": "2025-12-26T11:25:43.983604+00:00",
        "meta_object_name": "STARLINK-35419",
        "meta_object_id": "2025-268C",
        "meta_epoch": "2025-12-26T04:00:01.998720",
        "meta_mean_motion": 15.41839552,
        "meta_eccentricity": 0.0001073,
        "meta_inclination": 43.0006,
        "meta_ra_of_asc_node": 42.5664,
        "meta_arg_of_pericenter": 256.4813,
        "meta_mean_anomaly": 49.6448,
        "meta_ephemeris_type": 0,
        "meta_classification_type": "U",
        "meta_norad_cat_id": 66559,
        "meta_element_set_no": 999,
        "meta_rev_at_epoch": 605,
        "meta_bstar": -0.052362,
        "meta_mean_motion_dot": -0.02021165,
        "meta_mean_motion_ddot": 0,
        "tle_line1": "1 66559U 25268C   25360.16668980 -.02021165  00000+0 -52362-1 0  9991",
        "tle_line2": "2 66559  43.0006  42.5664 0001073 256.4813  49.6448 15.41839552  6052"
      },
      "geometry": {
        "type": "Point",
        "coordinates": [
          -102.60265779868003,
          -29.066039874019044
        ]
      }
    },
    {
      "type": "Feature",
      "properties": {
        "norad_id": 66560,
        "name": "STARLINK-35411",
        "group": "last-30-days",
        "lat": -33.48252815030722,
        "lon": -94.0222746521217,
        "alt_km": 445.38489569963804,
        "timestamp": "2025-12-26T11:25:43.983614+00:00",
        "meta_object_name": "STARLINK-35411",
        "meta_object_id": "2025-268D",
        "meta_epoch": "2025-12-26T04:00:01.998720",
        "meta_mean_motion": 15.42384097,
        "meta_eccentricity": 0.0001149,
        "meta_inclination": 43.0007,
        "meta_ra_of_asc_node": 42.5456,
        "meta_arg_of_pericenter": 253.1154,
        "meta_mean_anomaly": 60.9971,
        "meta_ephemeris_type": 0,
        "meta_classification_type": "U",
        "meta_norad_cat_id": 66560,
        "meta_element_set_no": 999,
        "meta_rev_at_epoch": 605,
        "meta_bstar": -0.052449,
        "meta_mean_motion_dot": -0.02057634,
        "meta_mean_motion_ddot": 0,
        "tle_line1": "1 66560U 25268D   25360.16668980 -.02057634  00000+0 -52449-1 0  9999",
        "tle_line2": "2 66560  43.0007  42.5456 0001149 253.1154  60.9971 15.42384097  6057"
      },
      "geometry": {
        "type": "Point",
        "coordinates": [
          -94.0222746521217,
          -33.48252815030722
        ]
      }
    }
  ]
}